[{"OBJECT_NAME":"STARLINK-3740","OBJECT_ID":"2022-041E","EPOCH":"2026-03-09T08:57:39.244032","MEAN_MOTION":15.08836306,"ECCENTRICITY":0.00016619,"INCLINATION":53.2176,"RA_OF_ASC_NODE":110.5426,"ARG_OF_PERICENTER":91.1426,"MEAN_ANOMALY":268.9756,"EPHEMERIS_TYPE":0,"CLASSIFICATION_TYPE":"U","NORAD_CAT_ID":52265,"ELEMENT_SET_NO":999,"REV_AT_EPOCH":21431,"BSTAR":-1.3867938e-5,"MEAN_MOTION_DOT":-5.09e-6,"MEAN_MOTION_DDOT":0},{"OBJECT_NAME":"RAISE-4","OBJECT_ID":"2025-297B","EPOCH":"2026-03-09T23:25:57.718272","MEAN_MOTION":15.08174958,"ECCENTRICITY":0.00127133,"INCLINATION":97.4953,"RA_OF_ASC_NODE":219.2703,"ARG_OF_PERICENTER":22.7159,"MEAN_ANOMALY":337.4629,"EPHEMERIS_TYPE":0,"CLASSIFICATION_TYPE":"U","NORAD_CAT_ID":67073,"ELEMENT_SET_NO":999,"REV_AT_EPOCH":1293,"BSTAR":0.00037087145,"MEAN_MOTION_DOT":5.682e-5,"MEAN_MOTION_DDOT":0}]
